start=new Date('2022-12-19T00:00:00.000Z').valueOf();
sats=[{"SITE":"AFETR","MEAN_MOTION_DOT":"0.00009870","FILE":"3709623","SEMIMAJOR_AXIS":"6925.286","RCS_SIZE":"LARGE","EPHEMERIS_TYPE":"0","BSTAR":"0.00068019000000","EPOCH":"2022-12-18T16:41:00.093408","OBJECT_TYPE":"PAYLOAD","MEAN_ANOMALY":"310.1708","PERIOD":"95.591","REF_FRAME":"TEME","TLE_LINE1":"1 45774U 20038AW  22352.69513997  .00009870  00000-0  68019-3 0  9994","INCLINATION":"53.0541","MEAN_MOTION":"15.06420338","APOAPSIS":"548.380","REV_AT_EPOCH":"13935","ECCENTRICITY":"0.00017750","LAUNCH_DATE":"2020-06-13","NORAD_CAT_ID":"45774","MEAN_ELEMENT_THEORY":"SGP4","OBJECT_NAME":"STARLINK-1485","GP_ID":"220865924","DECAY_DATE":null,"RA_OF_ASC_NODE":"80.3638","CENTER_NAME":"EARTH","ELEMENT_SET_NO":"999","PERIAPSIS":"545.922","TLE_LINE2":"2 45774  53.0541  80.3638 0001775  49.9436 310.1708 15.06420338139353","COUNTRY_CODE":"US","ARG_OF_PERICENTER":"49.9436","MEAN_MOTION_DDOT":"0.0000000000000","CLASSIFICATION_TYPE":"U","OBJECT_ID":"2020-038AW","TIME_SYSTEM":"UTC"},{"NORAD_CAT_ID":"45775","LAUNCH_DATE":"2020-06-13","ECCENTRICITY":"0.00009830","MEAN_ELEMENT_THEORY":"SGP4","REV_AT_EPOCH":"13935","INCLINATION":"53.0531","APOAPSIS":"542.102","MEAN_MOTION":"15.08291692","REF_FRAME":"TEME","TLE_LINE1":"1 45775U 20038AX  22352.59020506  .00019938  00000-0  12862-2 0  9993","PERIOD":"95.472","EPOCH":"2022-12-18T14:09:53.717184","OBJECT_TYPE":"PAYLOAD","MEAN_ANOMALY":"170.0805","BSTAR":"0.00128620000000","EPHEMERIS_TYPE":"0","SITE":"AFETR","SEMIMAJOR_AXIS":"6919.557","FILE":"3709623","RCS_SIZE":"LARGE","MEAN_MOTION_DOT":"0.00019938","OBJECT_ID":"2020-038AX","TIME_SYSTEM":"UTC","ARG_OF_PERICENTER":"190.0165","MEAN_MOTION_DDOT":"0.0000000000000","CLASSIFICATION_TYPE":"U","PERIAPSIS":"540.742","ELEMENT_SET_NO":"999","CENTER_NAME":"EARTH","COUNTRY_CODE":"US","TLE_LINE2":"2 45775  53.0531  80.3910 0000983 190.0165 170.0805 15.08291692139355","RA_OF_ASC_NODE":"80.3910","DECAY_DATE":null,"GP_ID":"220865675","OBJECT_NAME":"STARLINK-1488"},{"RA_OF_ASC_NODE":"80.9060","TLE_LINE2":"2 45776  53.0560  80.9060 0002135  46.7170 313.3997 15.06396585139342","COUNTRY_CODE":"US","CENTER_NAME":"EARTH","ELEMENT_SET_NO":"999","PERIAPSIS":"545.745","MEAN_MOTION_DDOT":"0.0000000000000","CLASSIFICATION_TYPE":"U","ARG_OF_PERICENTER":"46.7170","TIME_SYSTEM":"UTC","OBJECT_ID":"2020-038AY","OBJECT_NAME":"STARLINK-1489","GP_ID":"220866925","DECAY_DATE":null,"TLE_LINE1":"1 45776U 20038AY  22352.57350964 -.00000727  00000-0 -29891-4 0  9996","REF_FRAME":"TEME","MEAN_MOTION":"15.06396585","APOAPSIS":"548.703","INCLINATION":"53.0560","REV_AT_EPOCH":"13934","MEAN_ELEMENT_THEORY":"SGP4","ECCENTRICITY":"0.00021350","LAUNCH_DATE":"2020-06-13","NORAD_CAT_ID":"45776","MEAN_MOTION_DOT":"-0.00000727","FILE":"3709623","RCS_SIZE":"LARGE","SEMIMAJOR_AXIS":"6925.359","SITE":"AFETR","EPHEMERIS_TYPE":"0","BSTAR":"-0.00002989100000","MEAN_ANOMALY":"313.3997","OBJECT_TYPE":"PAYLOAD","EPOCH":"2022-12-18T13:45:51.232896","PERIOD":"95.592"},{"OBJECT_NAME":"STARLINK-1490","GP_ID":"220866673","DECAY_DATE":null,"ARG_OF_PERICENTER":"45.6189","MEAN_MOTION_DDOT":"0.0000000000000","CLASSIFICATION_TYPE":"U","OBJECT_ID":"2020-038AZ","TIME_SYSTEM":"UTC","RA_OF_ASC_NODE":"80.3240","CENTER_NAME":"EARTH","PERIAPSIS":"545.851","ELEMENT_SET_NO":"999","TLE_LINE2":"2 45777  53.0544  80.3240 0001991  45.6189 314.4963 15.06394825139368","COUNTRY_CODE":"US","EPOCH":"2022-12-18T16:51:37.646784","OBJECT_TYPE":"PAYLOAD","MEAN_ANOMALY":"314.4963","PERIOD":"95.592","SITE":"AFETR","MEAN_MOTION_DOT":"-0.00000605","SEMIMAJOR_AXIS":"6925.364","FILE":"3709623","RCS_SIZE":"LARGE","EPHEMERIS_TYPE":"0","BSTAR":"-0.00002169300000","REV_AT_EPOCH":"13936","LAUNCH_DATE":"2020-06-13","ECCENTRICITY":"0.00019910","NORAD_CAT_ID":"45777","MEAN_ELEMENT_THEORY":"SGP4","REF_FRAME":"TEME","TLE_LINE1":"1 45777U 20038AZ  22352.70251906 -.00000605  00000-0 -21693-4 0  9995","INCLINATION":"53.0544","MEAN_MOTION":"15.06394825","APOAPSIS":"548.608"},{"OBJECT_ID":"2020-038BA","TIME_SYSTEM":"UTC","ARG_OF_PERICENTER":"57.5275","MEAN_MOTION_DDOT":"0.0000000000000","CLASSIFICATION_TYPE":"U","ELEMENT_SET_NO":"999","PERIAPSIS":"546.134","CENTER_NAME":"EARTH","COUNTRY_CODE":"US","TLE_LINE2":"2 45778  53.0557  80.1022 0001618  57.5275 302.5870 15.06386721139353","RA_OF_ASC_NODE":"80.1022","DECAY_DATE":null,"OBJECT_NAME":"STARLINK-1491","GP_ID":"220865425","NORAD_CAT_ID":"45778","LAUNCH_DATE":"2020-06-13","ECCENTRICITY":"0.00016180","MEAN_ELEMENT_THEORY":"SGP4","REV_AT_EPOCH":"13935","INCLINATION":"53.0557","APOAPSIS":"548.375","MEAN_MOTION":"15.06386721","REF_FRAME":"TEME","TLE_LINE1":"1 45778U 20038BA  22352.75044121 -.00000826  00000-0 -36540-4 0  9992","PERIOD":"95.593","EPOCH":"2022-12-18T18:00:38.120544","OBJECT_TYPE":"PAYLOAD","MEAN_ANOMALY":"302.5870","BSTAR":"-0.00003654000000","EPHEMERIS_TYPE":"0","SITE":"AFETR","FILE":"3709623","RCS_SIZE":"LARGE","SEMIMAJOR_AXIS":"6925.389","MEAN_MOTION_DOT":"-0.00000826"},{"OBJECT_NAME":"STARLINK-1492","GP_ID":"220866175","DECAY_DATE":null,"CLASSIFICATION_TYPE":"U","MEAN_MOTION_DDOT":"0.0000000000000","ARG_OF_PERICENTER":"231.5010","TIME_SYSTEM":"UTC","OBJECT_ID":"2020-038BB","RA_OF_ASC_NODE":"78.1900","TLE_LINE2":"2 45779  53.0547  78.1900 0000844 231.5010 128.5906 15.11028830139385","COUNTRY_CODE":"US","CENTER_NAME":"EARTH","PERIAPSIS":"532.480","ELEMENT_SET_NO":"999","MEAN_ANOMALY":"128.5906","EPOCH":"2022-12-18T18:28:26.814720","OBJECT_TYPE":"PAYLOAD","PERIOD":"95.299","MEAN_MOTION_DOT":"0.00030154","SEMIMAJOR_AXIS":"6911.198","FILE":"3709623","RCS_SIZE":"LARGE","SITE":"AFETR","BSTAR":"0.00179350000000","EPHEMERIS_TYPE":"0","REV_AT_EPOCH":"13938","MEAN_ELEMENT_THEORY":"SGP4","ECCENTRICITY":"0.00008440","LAUNCH_DATE":"2020-06-13","NORAD_CAT_ID":"45779","TLE_LINE1":"1 45779U 20038BB  22352.76975480  .00030154  00000-0  17935-2 0  9995","REF_FRAME":"TEME","MEAN_MOTION":"15.11028830","APOAPSIS":"533.646","INCLINATION":"53.0547"},{"TIME_SYSTEM":"UTC","OBJECT_ID":"2020-038BC","MEAN_MOTION_DDOT":"0.0000000000000","CLASSIFICATION_TYPE":"U","ARG_OF_PERICENTER":"82.0734","COUNTRY_CODE":"US","TLE_LINE2":"2 45780  53.0562  80.6547 0001258  82.0734 278.0397 15.06405586139332","PERIAPSIS":"546.325","ELEMENT_SET_NO":"999","CENTER_NAME":"EARTH","RA_OF_ASC_NODE":"80.6547","DECAY_DATE":null,"GP_ID":"220866426","OBJECT_NAME":"STARLINK-1496","MEAN_ELEMENT_THEORY":"SGP4","NORAD_CAT_ID":"45780","ECCENTRICITY":"0.00012580","LAUNCH_DATE":"2020-06-13","REV_AT_EPOCH":"13933","APOAPSIS":"548.068","MEAN_MOTION":"15.06405586","INCLINATION":"53.0562","TLE_LINE1":"1 45780U 20038BC  22352.62510424 -.00000424  00000-0 -95406-5 0  9996","REF_FRAME":"TEME","PERIOD":"95.592","MEAN_ANOMALY":"278.0397","EPOCH":"2022-12-18T15:00:09.006336","OBJECT_TYPE":"PAYLOAD","EPHEMERIS_TYPE":"0","BSTAR":"-0.00000954060000","FILE":"3709623","RCS_SIZE":"LARGE","SEMIMAJOR_AXIS":"6925.331","MEAN_MOTION_DOT":"-0.00000424","SITE":"AFETR"},{"MEAN_MOTION":"15.06394682","APOAPSIS":"548.406","INCLINATION":"53.0551","TLE_LINE1":"1 45781U 20038BD  22352.71726581 -.00000757  00000-0 -31958-4 0  9990","REF_FRAME":"TEME","MEAN_ELEMENT_THEORY":"SGP4","LAUNCH_DATE":"2020-06-13","ECCENTRICITY":"0.00016990","NORAD_CAT_ID":"45781","REV_AT_EPOCH":"13935","EPHEMERIS_TYPE":"0","BSTAR":"-0.00003195800000","MEAN_MOTION_DOT":"-0.00000757","RCS_SIZE":"LARGE","FILE":"3709623","SEMIMAJOR_AXIS":"6925.365","SITE":"AFETR","PERIOD":"95.592","MEAN_ANOMALY":"311.5372","OBJECT_TYPE":"PAYLOAD","EPOCH":"2022-12-18T17:12:51.765984","TLE_LINE2":"2 45781  53.0551  80.2642 0001699  48.5762 311.5372 15.06394682139352","COUNTRY_CODE":"US","CENTER_NAME":"EARTH","ELEMENT_SET_NO":"999","PERIAPSIS":"546.053","RA_OF_ASC_NODE":"80.2642","TIME_SYSTEM":"UTC","OBJECT_ID":"2020-038BD","CLASSIFICATION_TYPE":"U","MEAN_MOTION_DDOT":"0.0000000000000","ARG_OF_PERICENTER":"48.5762","DECAY_DATE":null,"GP_ID":"220867172","OBJECT_NAME":"STARLINK-1497"},{"GP_ID":"220865925","OBJECT_NAME":"STARLINK-1498","DECAY_DATE":null,"RA_OF_ASC_NODE":"77.4618","PERIAPSIS":"532.594","ELEMENT_SET_NO":"999","CENTER_NAME":"EARTH","COUNTRY_CODE":"US","TLE_LINE2":"2 45782  53.0534  77.4618 0000202 131.7226 228.3783 15.11136971139413","ARG_OF_PERICENTER":"131.7226","MEAN_MOTION_DDOT":"0.0000000000000","CLASSIFICATION_TYPE":"U","OBJECT_ID":"2020-038BE","TIME_SYSTEM":"UTC","SITE":"AFETR","FILE":"3709623","RCS_SIZE":"LARGE","SEMIMAJOR_AXIS":"6910.868","MEAN_MOTION_DOT":"0.00021605","EPHEMERIS_TYPE":"0","BSTAR":"0.00128760000000","OBJECT_TYPE":"PAYLOAD","EPOCH":"2022-12-18T19:37:20.433504","MEAN_ANOMALY":"228.3783","PERIOD":"95.292","REF_FRAME":"TEME","TLE_LINE1":"1 45782U 20038BE  22352.81759761  .00021605  00000-0  12876-2 0  9997","INCLINATION":"53.0534","APOAPSIS":"532.873","MEAN_MOTION":"15.11136971","REV_AT_EPOCH":"13941","NORAD_CAT_ID":"45782","ECCENTRICITY":"0.00002020","LAUNCH_DATE":"2020-06-13","MEAN_ELEMENT_THEORY":"SGP4"},{"SITE":"AFETR","MEAN_MOTION_DOT":"0.00000185","RCS_SIZE":"LARGE","FILE":"3709623","SEMIMAJOR_AXIS":"6925.371","BSTAR":"0.00003133900000","EPHEMERIS_TYPE":"0","OBJECT_TYPE":"PAYLOAD","EPOCH":"2022-12-18T18:43:06.000384","MEAN_ANOMALY":"327.0879","PERIOD":"95.593","REF_FRAME":"TEME","TLE_LINE1":"1 45783U 20038BF  22352.77993056  .00000185  00000-0  31339-4 0  9997","INCLINATION":"53.0551","MEAN_MOTION":"15.06392633","APOAPSIS":"548.815","REV_AT_EPOCH":"13937","LAUNCH_DATE":"2020-06-13","ECCENTRICITY":"0.00022800","NORAD_CAT_ID":"45783","MEAN_ELEMENT_THEORY":"SGP4","OBJECT_NAME":"STARLINK-1505","GP_ID":"220865676","DECAY_DATE":null,"RA_OF_ASC_NODE":"79.9787","CENTER_NAME":"EARTH","ELEMENT_SET_NO":"999","PERIAPSIS":"545.657","TLE_LINE2":"2 45783  53.0551  79.9787 0002280  33.0252 327.0879 15.06392633139379","COUNTRY_CODE":"US","ARG_OF_PERICENTER":"33.0252","MEAN_MOTION_DDOT":"0.0000000000000","CLASSIFICATION_TYPE":"U","OBJECT_ID":"2020-038BF","TIME_SYSTEM":"UTC"}];
